MEAN_MOTION;ECCENTRICITY;INCLINATION;RA_OF_ASC_NODE;ARG_OF_PERICENTER;MEAN_ANOMALY;BSTAR;MEAN_MOTION_DOT;MEAN_MOTION_DDOT;TYPE
14.34217987;0.0002266;86.4018;21.1068;93.8994;266.2461;1.3475E-5;5.8E-7;0;Iridium
14.34218069;0.0002276;86.4019;20.9029;93.9625;266.1831;1.4814E-5;6.1E-7;0;Iridium
14.34218069;0.0002276;86.4019;20.9029;93.9625;266.1831;1.4814E-5;6.1E-7;0;Iridium
14.34218069;0.0002276;86.4019;20.9029;93.9625;266.1831;1.4814E-5;6.1E-7;0;Iridium
14.34218116;0.0002293;86.4019;20.699;93.7195;266.4263;1.4342E-5;6.0E-7;0;Iridium
14.34218119;0.0002296;86.402;20.5243;93.2764;266.8694;1.2468E-5;5.5E-7;0;Iridium
14.34218171;0.0002309;86.4021;20.2913;93.3198;266.8262;1.1828E-5;5.3E-7;0;Iridium
14.34218176;0.0002312;86.4022;20.0875;93.1031;267.043;9.8105E-6;4.7E-7;0;Iridium
14.34218176;0.0002312;86.4022;20.0875;93.1031;267.043;9.8105E-6;4.7E-7;0;Iridium
14.34218222;0.0002317;86.4022;19.9128;93.0686;267.0775;1.0422E-5;4.9E-7;0;Iridium
14.34218271;0.0002324;86.4022;19.6798;93.1352;267.011;1.0417E-5;4.9E-7;0;Iridium
14.34218309;0.0002338;86.4023;19.3011;92.9487;267.1976;1.0474E-5;4.9E-7;0;Iridium
14.34218503;0.0002335;86.4024;18.8643;92.3434;267.8029;1.5578E-5;6.3E-7;0;Iridium
14.34218503;0.0002335;86.4024;18.8643;92.3434;267.8029;1.5578E-5;6.3E-7;0;Iridium
14.34218381;0.0002353;86.4025;18.6313;92.2758;267.8707;1.0247E-5;4.8E-7;0;Iridium
14.34218539;0.0002357;86.4026;18.4274;92.106;268.0406;1.6227E-5;6.5E-7;0;Iridium
14.34218539;0.0002357;86.4026;18.4274;92.106;268.0406;1.6227E-5;6.5E-7;0;Iridium
14.34218566;0.0002376;86.4025;18.1943;92.3194;267.8273;1.6778E-5;6.7E-7;0;Iridium
14.34218655;0.0002406;86.4026;17.7865;92.2848;267.8623;1.8496E-5;7.2E-7;0;Iridium
14.34218621;0.0002434;86.4027;17.4954;91.1652;268.9822;5.7848E-6;3.6E-7;0;Iridium
14.34218635;0.0002432;86.4028;17.4081;91.104;269.0434;5.1683E-6;3.4E-7;0;Iridium
14.34218679;0.0002438;86.4028;17.1169;90.9328;269.2147;8.5253E-6;4.4E-7;0;Iridium
14.34218729;0.0002438;86.4028;16.9422;90.7484;269.3991;1.0532E-5;4.9E-7;0;Iridium
14.34218836;0.0002446;86.4029;16.6802;90.421;269.7266;1.56E-5;6.3E-7;0;Iridium
14.34218863;0.0002446;86.4029;16.5346;90.3637;269.7839;1.4397E-5;6.0E-7;0;Iridium
14.34218969;0.0002451;86.4029;16.2725;90.0827;270.065;1.7683E-5;6.9E-7;0;Iridium
14.3421898;0.0002452;86.4029;16.2434;90.0459;270.1018;1.8032E-5;7.0E-7;0;Iridium
14.34219047;0.0002454;86.4029;16.0978;90.0944;270.0532;1.9498E-5;7.4E-7;0;Iridium
14.34219134;0.0002457;86.4029;15.8358;89.6869;270.4609;2.0788E-5;7.8E-7;0;Iridium
14.34219162;0.0002458;86.4029;15.6902;89.545;270.6027;1.8644E-5;7.2E-7;0;Iridium
14.34219226;0.0002461;86.403;15.4282;89.3272;270.8206;1.8183E-5;7.1E-7;0;Iridium
14.34219167;0.0002468;86.403;15.2826;89.1531;270.9947;1.0941E-5;5.0E-7;0;Iridium
14.34219197;0.0002468;86.403;15.137;89.0296;271.1182;1.0773E-5;5.0E-7;0;Iridium
14.34219235;0.0002472;86.403;14.8749;88.7827;271.3652;9.6709E-6;4.7E-7;0;Iridium
14.34219239;0.0002475;86.4031;14.6129;88.417;271.7309;8.0904E-6;4.2E-7;0;Iridium
14.34219253;0.0002476;86.4031;14.5838;88.3251;271.8228;8.6753E-6;4.4E-7;0;Iridium
14.34219304;0.0002477;86.4031;14.4382;88.3669;271.7811;9.5258E-6;4.6E-7;0;Iridium
14.342194;0.0002481;86.4032;14.1762;88.0157;272.1323;1.2127E-5;5.4E-7;0;Iridium
14.34219445;0.0002483;86.4032;14.0306;87.9879;272.1601;1.308E-5;5.6E-7;0;Iridium
14.34219474;0.0002493;86.4032;13.7686;87.5931;272.555;1.2572E-5;5.5E-7;0;Iridium
14.34219497;0.0002494;86.4032;13.623;87.576;272.5722;1.188E-5;5.3E-7;0;Iridium
14.34219583;0.0002501;86.4032;13.3319;87.3026;272.8456;1.4839E-5;6.1E-7;0;Iridium
14.3421963;0.00025;86.4033;13.1863;87.2622;272.886;1.6446E-5;6.6E-7;0;Iridium
14.34215411;0.0002496;86.4034;12.9243;87.2594;272.8888;1.9065E-5;7.3E-7;0;Iridium
14.34215712;0.0002518;86.4032;12.7785;87.272;272.8764;1.1331E-5;5.2E-7;0;Iridium
14.34215749;0.0002519;86.4032;12.5167;86.4442;273.7042;1.8144E-6;2.5E-7;0;Iridium
14.34215767;0.0002517;86.4032;12.4875;86.4671;273.6813;2.2719E-6;2.6E-7;0;Iridium
14.34215771;0.0002515;86.4032;12.3711;86.3672;273.7812;2.1651E-6;2.6E-7;0;Iridium
14.34215797;0.0002517;86.4032;12.08;85.8838;274.2646;3.7732E-6;3.0E-7;0;Iridium
14.34215804;0.0002516;86.4032;12.0508;85.8473;274.301;4.0141E-6;3.1E-7;0;Iridium
14.34215824;0.0002518;86.4032;11.9343;85.9784;274.1699;3.9439E-6;3.1E-7;0;Iridium
14.34215833;0.0002518;86.4032;11.8761;85.9106;274.2377;4.6724E-6;3.3E-7;0;Iridium
14.34216157;0.0002513;86.4031;11.5267;85.3853;274.7629;2.7901E-5;9.8E-7;0;Iridium
14.34216188;0.0002508;86.4031;11.4102;85.2262;274.9221;2.7494E-5;9.7E-7;0;Iridium
14.3421619;0.0002505;86.4031;11.352;85.1474;275.0008;2.5706E-5;9.2E-7;0;Iridium
14.3421625;0.0002502;86.4031;11.1482;84.9493;275.1988;2.4784E-5;8.9E-7;0;Iridium
14.34216352;0.0002493;86.403;10.9444;84.757;275.391;2.6675E-5;9.4E-7;0;Iridium
14.34216434;0.000249;86.403;10.7406;84.6112;275.5368;2.6394E-5;9.4E-7;0;Iridium
14.34216503;0.0002482;86.403;10.5367;84.4251;275.7228;2.6205E-5;9.3E-7;0;Iridium
14.34216656;0.0002475;86.4029;10.1291;83.8339;276.3138;2.5182E-5;9.0E-7;0;Iridium
14.34216689;0.0002475;86.4029;9.8962;83.671;276.4767;2.206E-5;8.2E-7;0;Iridium
14.34216784;0.0002467;86.4029;9.6924;83.4879;276.6598;2.2896E-5;8.4E-7;0;Iridium
14.34216784;0.0002467;86.4029;9.6924;83.4879;276.6598;2.2896E-5;8.4E-7;0;Iridium
14.34216814;0.0002463;86.4028;9.4595;83.3322;276.8154;1.9715E-5;7.5E-7;0;Iridium
14.34216931;0.000246;86.4028;9.2556;83.2469;276.9007;2.1772E-5;8.1E-7;0;Iridium
14.34216965;0.0002458;86.4028;9.11;83.1911;276.9565;2.0806E-5;7.8E-7;0;Iridium
14.34216948;0.0002461;86.4028;9.0227;83.1166;277.031;1.8797E-5;7.2E-7;0;Iridium
14.34217081;0.000246;86.4027;8.6733;83.0548;277.0928;1.9443E-5;7.4E-7;0;Iridium
14.34217081;0.0002462;86.4027;8.6442;83.0708;277.0768;1.9061E-5;7.3E-7;0;Iridium
14.34217115;0.0002461;86.4027;8.4404;82.6696;277.478;1.8304E-5;7.1E-7;0;Iridium
14.3421715;0.000246;86.4026;8.2365;82.0974;278.0501;1.6967E-5;6.7E-7;0;Iridium
14.34217206;0.0002448;86.4026;8.0326;81.8632;278.2842;1.7757E-5;7.0E-7;0;Iridium
14.34217246;0.0002443;86.4026;7.7996;81.5045;278.6427;1.7344E-5;6.8E-7;0;Iridium
14.34217378;0.0002441;86.4025;7.3628;81.46;278.6872;1.9897E-5;7.5E-7;0;Iridium
14.34217495;0.0002432;86.4024;6.9841;81.3939;278.7532;2.1526E-5;8.0E-7;0;Iridium
14.34217527;0.0002424;86.4023;6.7802;81.1123;279.0347;2.1174E-5;7.9E-7;0;Iridium
14.34217594;0.0002418;86.4023;6.5764;81.0746;279.0723;2.2082E-5;8.2E-7;0;Iridium
14.34217672;0.0002409;86.4022;6.3725;81.0238;279.1231;2.3667E-5;8.6E-7;0;Iridium
14.34217733;0.0002413;86.4021;6.1394;81.22;278.9269;2.3726E-5;8.6E-7;0;Iridium
14.34217829;0.0002405;86.402;5.9356;81.0803;279.0665;2.5458E-5;9.1E-7;0;Iridium
14.34217872;0.0002401;86.402;5.7899;80.9433;279.2035;2.5312E-5;9.1E-7;0;Iridium
14.34217881;0.0002406;86.402;5.7025;80.6608;279.486;2.4616E-5;8.9E-7;0;Iridium
14.34218015;0.0002397;86.4019;5.3531;80.116;280.0306;2.4528E-5;8.8E-7;0;Iridium
14.34218015;0.0002396;86.4019;5.3239;80.1188;280.0278;2.3801E-5;8.6E-7;0;Iridium
14.34218053;0.0002384;86.4018;5.12;79.8438;280.3027;2.1923E-5;8.1E-7;0;Iridium
14.34218053;0.0002384;86.4018;5.12;79.8438;280.3027;2.1923E-5;8.1E-7;0;Iridium
14.34218134;0.0002375;86.4018;4.887;79.6028;280.5435;2.1838E-5;8.1E-7;0;Iridium
14.34218189;0.0002366;86.4017;4.7122;79.4894;280.6568;2.1309E-5;7.9E-7;0;Iridium
14.34218268;0.0002348;86.4016;4.3045;78.997;281.1489;1.7886E-5;7.0E-7;0;Iridium
14.34218268;0.0002348;86.4016;4.3045;78.997;281.1489;1.7886E-5;7.0E-7;0;Iridium
14.34218328;0.000234;86.4015;4.0714;78.7774;281.3685;1.6673E-5;6.6E-7;0;Iridium
14.34218356;0.0002334;86.4015;3.8384;78.9399;281.2059;1.5026E-5;6.2E-7;0;Iridium
14.34218401;0.0002326;86.4014;3.6636;78.7913;281.3545;1.4578E-5;6.1E-7;0;Iridium
14.34218404;0.0002329;86.4014;3.6346;78.8978;281.248;1.4764E-5;6.1E-7;0;Iridium
14.34218542;0.0002318;86.4013;3.2849;78.7612;281.3844;1.7262E-5;6.8E-7;0;Iridium
14.34218535;0.0002318;86.4013;3.2267;78.8555;281.2902;1.6182E-5;6.5E-7;0;Iridium
14.34218646;0.0002303;86.4012;2.8771;78.5936;281.5518;1.8236E-5;7.1E-7;0;Iridium
14.34218626;0.0002303;86.4012;2.7897;78.6768;281.4686;1.6226E-5;6.5E-7;0;Iridium
14.34218708;0.0002289;86.4011;2.4401;78.268;281.8773;1.6681E-5;6.6E-7;0;Iridium
14.34218705;0.0002277;86.4011;2.207;78.0417;282.1034;1.4906E-5;6.2E-7;0;Iridium
14.34218758;0.0002265;86.401;1.9739;77.9726;282.1724;1.5901E-5;6.4E-7;0;Iridium
14.34218828;0.0002258;86.4009;1.7991;77.8527;282.2922;1.7748E-5;6.9E-7;0;Iridium
14.34218881;0.0002248;86.4008;1.566;77.8293;282.3155;1.828E-5;7.1E-7;0;Iridium
14.34219028;0.0002229;86.4007;1.2163;77.6587;282.4858;2.2919E-5;8.4E-7;0;Iridium
14.34219025;0.0002229;86.4007;1.158;77.6115;282.533;2.1585E-5;8.0E-7;0;Iridium
14.34219171;0.0002209;86.4005;0.8083;77.3956;282.7486;2.5421E-5;9.1E-7;0;Iridium
14.34219171;0.0002209;86.4005;0.7792;77.3915;282.7527;2.4653E-5;8.9E-7;0;Iridium
14.34219164;0.0002209;86.4005;0.75;77.4146;282.7297;2.376E-5;8.6E-7;0;Iridium
14.34219302;0.0002192;86.4003;0.3711;77.6321;282.512;2.583E-5;9.2E-7;0;Iridium
14.34219302;0.0002192;86.4003;0.3711;77.6321;282.512;2.583E-5;9.2E-7;0;Iridium
14.34219285;0.0002194;86.4003;0.3129;77.7977;282.3464;2.4306E-5;8.8E-7;0;Iridium
14.34219431;0.0002178;86.4001;359.9341;77.8848;282.2592;2.4852E-5;8.9E-7;0;Iridium
14.34219415;0.0002179;86.4001;359.8758;77.871;282.273;2.3488E-5;8.6E-7;0;Iridium
14.34219512;0.0002161;86.4;359.5552;77.7809;282.3629;2.2581E-5;8.3E-7;0;Iridium
14.34219481;0.0002165;86.4;359.4678;77.6684;282.4754;1.8758E-5;7.2E-7;0;Iridium
14.34219557;0.0002153;86.3999;359.2929;77.6028;282.5408;1.9613E-5;7.5E-7;0;Iridium
14.34219615;0.0002146;86.3998;359.0889;77.7951;282.3485;1.8625E-5;7.2E-7;0;Iridium
14.34216888;0.0002543;86.4009;358.882;71.1551;288.992;1.665E-5;6.6E-7;0;Iridium
14.34215879;0.0002138;86.3995;358.273;77.534;282.6095;1.4043E-5;5.9E-7;0;Iridium
14.34215891;0.0002137;86.3996;358.2439;77.5743;282.5692;1.5516E-5;6.3E-7;0;Iridium
14.34215885;0.0002122;86.3993;357.8941;77.2722;282.8711;3.8874E-6;3.1E-7;0;Iridium
14.34215922;0.0002109;86.3993;357.7482;78.1257;282.0175;6.5368E-6;3.8E-7;0;Iridium
